[{"OBJECT_NAME":"SMOS","OBJECT_ID":"2009-059A","EPOCH":"2026-03-04T02:40:26.269824","MEAN_MOTION":14.39755608,"ECCENTRICITY":0.0001036,"INCLINATION":98.4425,"RA_OF_ASC_NODE":251.9696,"ARG_OF_PERICENTER":80.485,"MEAN_ANOMALY":279.6456,"EPHEMERIS_TYPE":0,"CLASSIFICATION_TYPE":"U","NORAD_CAT_ID":36036,"ELEMENT_SET_NO":999,"REV_AT_EPOCH":85833,"BSTAR":0.00015938,"MEAN_MOTION_DOT":4.56e-6,"MEAN_MOTION_DDOT":0},{"OBJECT_NAME":"YAOGAN-7","OBJECT_ID":"2009-069A","EPOCH":"2026-03-04T03:36:35.338464","MEAN_MOTION":14.77881968,"ECCENTRICITY":0.0025186,"INCLINATION":98.0221,"RA_OF_ASC_NODE":309.5883,"ARG_OF_PERICENTER":20.9895,"MEAN_ANOMALY":339.2343,"EPHEMERIS_TYPE":0,"CLASSIFICATION_TYPE":"U","NORAD_CAT_ID":36110,"ELEMENT_SET_NO":999,"REV_AT_EPOCH":87411,"BSTAR":0.00015857,"MEAN_MOTION_DOT":1.093e-5,"MEAN_MOTION_DDOT":0},{"OBJECT_NAME":"TANDEM-X","OBJECT_ID":"2010-030A","EPOCH":"2026-03-03T12:56:08.813760","MEAN_MOTION":15.19150658,"ECCENTRICITY":0.0001885,"INCLINATION":97.4468,"RA_OF_ASC_NODE":71.7501,"ARG_OF_PERICENTER":90.0602,"MEAN_ANOMALY":270.0849,"EPHEMERIS_TYPE":0,"CLASSIFICATION_TYPE":"U","NORAD_CAT_ID":36605,"ELEMENT_SET_NO":999,"REV_AT_EPOCH":87060,"BSTAR":6.3499e-5,"MEAN_MOTION_DOT":1.267e-5,"MEAN_MOTION_DDOT":0},{"OBJECT_NAME":"CARTOSAT-2B","OBJECT_ID":"2010-035A","EPOCH":"2026-03-04T04:19:26.731200","MEAN_MOTION":14.78666685,"ECCENTRICITY":0.0011532,"INCLINATION":97.8563,"RA_OF_ASC_NODE":114.5815,"ARG_OF_PERICENTER":166.2623,"MEAN_ANOMALY":193.8904,"EPHEMERIS_TYPE":0,"CLASSIFICATION_TYPE":"U","NORAD_CAT_ID":36795,"ELEMENT_SET_NO":999,"REV_AT_EPOCH":84433,"BSTAR":0.00010786,"MEAN_MOTION_DOT":7.4e-6,"MEAN_MOTION_DDOT":0},{"OBJECT_NAME":"YAOGAN-10","OBJECT_ID":"2010-038A","EPOCH":"2026-03-04T04:22:46.152768","MEAN_MOTION":14.84986702,"ECCENTRICITY":0.0001666,"INCLINATION":97.9083,"RA_OF_ASC_NODE":87.3962,"ARG_OF_PERICENTER":93.3889,"MEAN_ANOMALY":331.5617,"EPHEMERIS_TYPE":0,"CLASSIFICATION_TYPE":"U","NORAD_CAT_ID":36834,"ELEMENT_SET_NO":999,"REV_AT_EPOCH":84162,"BSTAR":0.00014156,"MEAN_MOTION_DOT":1.153e-5,"MEAN_MOTION_DDOT":0},{"OBJECT_NAME":"COSMO-SKYMED 4","OBJECT_ID":"2010-060A","EPOCH":"2026-03-04T04:40:33.693024","MEAN_MOTION":14.82152691,"ECCENTRICITY":0.0001358,"INCLINATION":97.8852,"RA_OF_ASC_NODE":248.3106,"ARG_OF_PERICENTER":84.7791,"MEAN_ANOMALY":275.3577,"EPHEMERIS_TYPE":0,"CLASSIFICATION_TYPE":"U","NORAD_CAT_ID":37216,"ELEMENT_SET_NO":999,"REV_AT_EPOCH":82901,"BSTAR":8.637e-5,"MEAN_MOTION_DOT":6.35e-6,"MEAN_MOTION_DDOT":0},{"OBJECT_NAME":"RESOURCESAT-2","OBJECT_ID":"2011-015A","EPOCH":"2026-03-04T03:38:10.247136","MEAN_MOTION":14.21484971,"ECCENTRICITY":0.0006188,"INCLINATION":98.7732,"RA_OF_ASC_NODE":131.2739,"ARG_OF_PERICENTER":153.5553,"MEAN_ANOMALY":206.5941,"EPHEMERIS_TYPE":0,"CLASSIFICATION_TYPE":"U","NORAD_CAT_ID":37387,"ELEMENT_SET_NO":999,"REV_AT_EPOCH":77125,"BSTAR":-8.1445e-5,"MEAN_MOTION_DOT":-2.23e-6,"MEAN_MOTION_DDOT":0},{"OBJECT_NAME":"HAIYANG-2A","OBJECT_ID":"2011-043A","EPOCH":"2026-03-04T04:45:02.240640","MEAN_MOTION":13.78438159,"ECCENTRICITY":9.14e-5,"INCLINATION":99.3407,"RA_OF_ASC_NODE":67.886,"ARG_OF_PERICENTER":287.7116,"MEAN_ANOMALY":72.3935,"EPHEMERIS_TYPE":0,"CLASSIFICATION_TYPE":"U","NORAD_CAT_ID":37781,"ELEMENT_SET_NO":999,"REV_AT_EPOCH":73221,"BSTAR":6.6433e-5,"MEAN_MOTION_DOT":2.3e-7,"MEAN_MOTION_DDOT":0},{"OBJECT_NAME":"RASAT","OBJECT_ID":"2011-044D","EPOCH":"2026-03-04T05:11:41.847648","MEAN_MOTION":14.68045679,"ECCENTRICITY":0.002098,"INCLINATION":98.0568,"RA_OF_ASC_NODE":156.2415,"ARG_OF_PERICENTER":161.8228,"MEAN_ANOMALY":251.8624,"EPHEMERIS_TYPE":0,"CLASSIFICATION_TYPE":"U","NORAD_CAT_ID":37791,"ELEMENT_SET_NO":999,"REV_AT_EPOCH":77778,"BSTAR":0.00011324,"MEAN_MOTION_DOT":6.03e-6,"MEAN_MOTION_DDOT":0},{"OBJECT_NAME":"SRMSAT","OBJECT_ID":"2011-058D","EPOCH":"2026-03-04T02:51:36.631008","MEAN_MOTION":14.11545206,"ECCENTRICITY":0.0011882,"INCLINATION":19.9731,"RA_OF_ASC_NODE":335.4194,"ARG_OF_PERICENTER":128.0964,"MEAN_ANOMALY":11.1385,"EPHEMERIS_TYPE":0,"CLASSIFICATION_TYPE":"U","NORAD_CAT_ID":37841,"ELEMENT_SET_NO":999,"REV_AT_EPOCH":74295,"BSTAR":0.00012795,"MEAN_MOTION_DOT":5.01e-6,"MEAN_MOTION_DDOT":0},{"OBJECT_NAME":"PLEIADES 1A","OBJECT_ID":"2011-076F","EPOCH":"2026-03-04T04:02:59.167104","MEAN_MOTION":14.58533485,"ECCENTRICITY":0.0001646,"INCLINATION":98.2059,"RA_OF_ASC_NODE":139.6517,"ARG_OF_PERICENTER":93.361,"MEAN_ANOMALY":348.7108,"EPHEMERIS_TYPE":0,"CLASSIFICATION_TYPE":"U","NORAD_CAT_ID":38012,"ELEMENT_SET_NO":999,"REV_AT_EPOCH":75668,"BSTAR":7.6734e-5,"MEAN_MOTION_DOT":3.11e-6,"MEAN_MOTION_DDOT":0},{"OBJECT_NAME":"ZIYUAN 1-02C (ZY 1-02C)","OBJECT_ID":"2011-079A","EPOCH":"2026-03-04T05:33:28.951776","MEAN_MOTION":14.38116554,"ECCENTRICITY":0.0005273,"INCLINATION":98.4189,"RA_OF_ASC_NODE":132.6944,"ARG_OF_PERICENTER":259.6458,"MEAN_ANOMALY":175.8935,"EPHEMERIS_TYPE":0,"CLASSIFICATION_TYPE":"U","NORAD_CAT_ID":38038,"ELEMENT_SET_NO":999,"REV_AT_EPOCH":74412,"BSTAR":0.00017575,"MEAN_MOTION_DOT":4.9e-6,"MEAN_MOTION_DDOT":0},{"OBJECT_NAME":"ARIRANG-3 (KOMPSAT-3)","OBJECT_ID":"2012-025B","EPOCH":"2026-03-04T03:00:00.749088","MEAN_MOTION":14.62093705,"ECCENTRICITY":0.0006781,"INCLINATION":98.1053,"RA_OF_ASC_NODE":22.4777,"ARG_OF_PERICENTER":84.7883,"MEAN_ANOMALY":275.4092,"EPHEMERIS_TYPE":0,"CLASSIFICATION_TYPE":"U","NORAD_CAT_ID":38338,"ELEMENT_SET_NO":999,"REV_AT_EPOCH":73599,"BSTAR":0.00018898,"MEAN_MOTION_DOT":9.03e-6,"MEAN_MOTION_DDOT":0},{"OBJECT_NAME":"EXACTVIEW-1 (ADS-1B)","OBJECT_ID":"2012-039C","EPOCH":"2026-03-03T20:18:06.896160","MEAN_MOTION":14.24948194,"ECCENTRICITY":0.0011864,"INCLINATION":98.9635,"RA_OF_ASC_NODE":177.9382,"ARG_OF_PERICENTER":113.7993,"MEAN_ANOMALY":246.4431,"EPHEMERIS_TYPE":0,"CLASSIFICATION_TYPE":"U","NORAD_CAT_ID":38709,"ELEMENT_SET_NO":999,"REV_AT_EPOCH":70770,"BSTAR":0.00010661,"MEAN_MOTION_DOT":2.03e-6,"MEAN_MOTION_DDOT":0},{"OBJECT_NAME":"SPOT 6","OBJECT_ID":"2012-047A","EPOCH":"2026-03-04T04:02:11.354208","MEAN_MOTION":14.58536251,"ECCENTRICITY":0.0001429,"INCLINATION":98.2236,"RA_OF_ASC_NODE":131.6575,"ARG_OF_PERICENTER":95.042,"MEAN_ANOMALY":265.0942,"EPHEMERIS_TYPE":0,"CLASSIFICATION_TYPE":"U","NORAD_CAT_ID":38755,"ELEMENT_SET_NO":999,"REV_AT_EPOCH":71774,"BSTAR":8.335e-5,"MEAN_MOTION_DOT":3.41e-6,"MEAN_MOTION_DDOT":0},{"OBJECT_NAME":"PLEIADES 1B","OBJECT_ID":"2012-068A","EPOCH":"2026-03-04T04:29:43.133856","MEAN_MOTION":14.58521397,"ECCENTRICITY":0.0001636,"INCLINATION":98.2028,"RA_OF_ASC_NODE":139.6558,"ARG_OF_PERICENTER":92.6108,"MEAN_ANOMALY":267.5278,"EPHEMERIS_TYPE":0,"CLASSIFICATION_TYPE":"U","NORAD_CAT_ID":39019,"ELEMENT_SET_NO":999,"REV_AT_EPOCH":70554,"BSTAR":8.3165e-5,"MEAN_MOTION_DOT":3.41e-6,"MEAN_MOTION_DDOT":0},{"OBJECT_NAME":"GOKTURK 2","OBJECT_ID":"2012-073A","EPOCH":"2026-03-04T04:05:05.754336","MEAN_MOTION":14.75424022,"ECCENTRICITY":0.0001246,"INCLINATION":97.6883,"RA_OF_ASC_NODE":265.8207,"ARG_OF_PERICENTER":55.1661,"MEAN_ANOMALY":304.9666,"EPHEMERIS_TYPE":0,"CLASSIFICATION_TYPE":"U","NORAD_CAT_ID":39030,"ELEMENT_SET_NO":999,"REV_AT_EPOCH":70902,"BSTAR":6.0087e-5,"MEAN_MOTION_DOT":3.61e-6,"MEAN_MOTION_DDOT":0}]
