SMOS                    
1 36036U 09059A   26063.11141516  .00000456  00000+0  15938-3 0  9991
2 36036  98.4425 251.9696 0001036  80.4850 279.6456 14.39755608858339
YAOGAN-7                
1 36110U 09069A   26063.15040901  .00001093  00000+0  15857-3 0  9993
2 36110  98.0221 309.5883 0025186  20.9895 339.2343 14.77881968874113
TANDEM-X                
1 36605U 10030A   26062.53899090  .00001267  00000+0  63499-4 0  9993
2 36605  97.4468  71.7501 0001885  90.0602 270.0849 15.19150658870602
CARTOSAT-2B             
1 36795U 10035A   26063.18017050  .00000740  00000+0  10786-3 0  9993
2 36795  97.8563 114.5815 0011532 166.2623 193.8904 14.78666685844336
YAOGAN-10               
1 36834U 10038A   26063.18247862  .00001153  00000+0  14156-3 0  9990
2 36834  97.9083  87.3962 0001666  93.3889 331.5617 14.84986702841622
COSMO-SKYMED 4          
1 37216U 10060A   26063.19483441  .00000635  00000+0  86370-4 0  9998
2 37216  97.8852 248.3106 0001358  84.7791 275.3577 14.82152691829012
RESOURCESAT-2           
1 37387U 11015A   26063.15150749 -.00000223  00000+0 -81445-4 0  9999
2 37387  98.7732 131.2739 0006188 153.5553 206.5941 14.21484971771252
HAIYANG-2A              
1 37781U 11043A   26063.19794260  .00000023  00000+0  66433-4 0  9990
2 37781  99.3407  67.8860 0000914 287.7116  72.3935 13.78438159732214
RASAT                   
1 37791U 11044D   26063.21645657  .00000603  00000+0  11324-3 0  9992
2 37791  98.0568 156.2415 0020980 161.8228 251.8624 14.68045679777780
SRMSAT                  
1 37841U 11058D   26063.11917397  .00000501  00000+0  12795-3 0  9995
2 37841  19.9731 335.4194 0011882 128.0964  11.1385 14.11545206742959
PLEIADES 1A             
1 38012U 11076F   26063.16874036  .00000311  00000+0  76734-4 0  9996
2 38012  98.2059 139.6517 0001646  93.3610 348.7108 14.58533485756689
ZIYUAN 1-02C (ZY 1-02C) 
1 38038U 11079A   26063.23158509  .00000490  00000+0  17575-3 0  9990
2 38038  98.4189 132.6944 0005273 259.6458 175.8935 14.38116554744122
ARIRANG-3 (KOMPSAT-3)   
1 38338U 12025B   26063.12500867  .00000903  00000+0  18898-3 0  9999
2 38338  98.1053  22.4777 0006781  84.7883 275.4092 14.62093705735991
EXACTVIEW-1 (ADS-1B)    
1 38709U 12039C   26062.84591315  .00000203  00000+0  10661-3 0  9995
2 38709  98.9635 177.9382 0011864 113.7993 246.4431 14.24948194707700
SPOT 6                  
1 38755U 12047A   26063.16818697  .00000341  00000+0  83350-4 0  9995
2 38755  98.2236 131.6575 0001429  95.0420 265.0942 14.58536251717748
PLEIADES 1B             
1 39019U 12068A   26063.18730479  .00000341  00000+0  83165-4 0  9999
2 39019  98.2028 139.6558 0001636  92.6108 267.5278 14.58521397705545
GOKTURK 2               
1 39030U 12073A   26063.17020549  .00000361  00000+0  60087-4 0  9997
2 39030  97.6883 265.8207 0001246  55.1661 304.9666 14.75424022709028
